{"type": "FeatureCollection", "features": [ {"type": "Feature", "properties": {"norad_id": 34472, "name": "COSMOS 2251 DEB", "group": "cosmos-2251-debris", "lat": 36.81267258540165, "lon": 86.75029694840296, "alt_km": 1226.5645234462772, "timestamp": "2025-12-27T03:58:44.541338+00:00", "meta": {"OBJECT_NAME": "COSMOS 2251 DEB", "OBJECT_ID": "1993-036TR", "EPOCH": "2025-12-25T14:59:08.401056", "MEAN_MOTION": 13.7035431, "ECCENTRICITY": 0.032767, "INCLINATION": 74.0846, "RA_OF_ASC_NODE": 76.9541, "ARG_OF_PERICENTER": 205.149, "MEAN_ANOMALY": 153.3364, "EPHEMERIS_TYPE": 0, "CLASSIFICATION_TYPE": "U", "NORAD_CAT_ID": 34472, "ELEMENT_SET_NO": 999, "REV_AT_EPOCH": 83903, "BSTAR": 0.00075081, "MEAN_MOTION_DOT": 9.47e-06, "MEAN_MOTION_DDOT": 0}, "tle": {"line1": "1 34472U 93036TR  25359.62440279  .00000947  00000+0  75081-3 0  9992", "line2": "2 34472  74.0846  76.9541 0327670 205.1490 153.3364 13.70354310839034"}}, "geometry": {"type": "Point", "coordinates": [86.75029694840296, 36.81267258540165]}}, {"type": "Feature", "properties": {"norad_id": 34474, "name": "COSMOS 2251 DEB", "group": "cosmos-2251-debris", "lat": -61.824491048087324, "lon": 153.19368463945483, "alt_km": 959.1377701594429, "timestamp": "2025-12-27T03:58:44.541347+00:00", "meta": {"OBJECT_NAME": "COSMOS 2251 DEB", "OBJECT_ID": "1993-036TT", "EPOCH": "2025-12-26T06:52:53.135904", "MEAN_MOTION": 14.06527402, "ECCENTRICITY": 0.0199477, "INCLINATION": 74.0788, "RA_OF_ASC_NODE": 302.5273, "ARG_OF_PERICENTER": 13.1832, "MEAN_ANOMALY": 105.6842, "EPHEMERIS_TYPE": 0, "CLASSIFICATION_TYPE": "U", "NORAD_CAT_ID": 34474, "ELEMENT_SET_NO": 999, "REV_AT_EPOCH": 85699, "BSTAR": 0.0024147, "MEAN_MOTION_DOT": 4.765e-05, "MEAN_MOTION_DDOT": 0}, "tle": {"line1": "1 34474U 93036TT  25360.28672611  .00004765  00000+0  24147-2 0  9993", "line2": "2 34474  74.0788 302.5273 0199477  13.1832 105.6842 14.06527402856999"}}, "geometry": {"type": "Point", "coordinates": [153.19368463945483, -61.824491048087324]}}, {"type": "Feature", "properties": {"norad_id": 34476, "name": "COSMOS 2251 DEB", "group": "cosmos-2251-debris", "lat": 36.935351885231135, "lon": 70.6402245675064, "alt_km": 1080.0057632213493, "timestamp": "2025-12-27T03:58:44.541357+00:00", "meta": {"OBJECT_NAME": "COSMOS 2251 DEB", "OBJECT_ID": "1993-036TV", "EPOCH": "2025-12-23T04:15:02.567520", "MEAN_MOTION": 13.82132648, "ECCENTRICITY": 0.03222242, "INCLINATION": 74.0063, "RA_OF_ASC_NODE": 64.9101, "ARG_OF_PERICENTER": 282.3311, "MEAN_ANOMALY": 74.192, "EPHEMERIS_TYPE": 0, "CLASSIFICATION_TYPE": "U", "NORAD_CAT_ID": 34476, "ELEMENT_SET_NO": 999, "REV_AT_EPOCH": 83782, "BSTAR": 0.0037798313, "MEAN_MOTION_DOT": 6.03e-05, "MEAN_MOTION_DDOT": 0}, "tle": {"line1": "1 34476U 93036TV  25357.17711305  .00006030  00000+0  37798-2 0  9996", "line2": "2 34476  74.0063  64.9101 0322224 282.3311  74.1920 13.82132648837821"}}, "geometry": {"type": "Point", "coordinates": [70.6402245675064, 36.935351885231135]}}, {"type": "Feature", "properties": {"norad_id": 34477, "name": "COSMOS 2251 DEB", "group": "cosmos-2251-debris", "lat": -30.33605447027701, "lon": -128.31041179043842, "alt_km": 656.151624518232, "timestamp": "2025-12-27T03:58:44.541366+00:00", "meta": {"OBJECT_NAME": "COSMOS 2251 DEB", "OBJECT_ID": "1993-036TW", "EPOCH": "2025-12-26T12:43:15.951072", "MEAN_MOTION": 14.56957737, "ECCENTRICITY": 0.0076607, "INCLINATION": 73.9786, "RA_OF_ASC_NODE": 43.2204, "ARG_OF_PERICENTER": 227.804, "MEAN_ANOMALY": 250.8476, "EPHEMERIS_TYPE": 0, "CLASSIFICATION_TYPE": "U", "NORAD_CAT_ID": 34477, "ELEMENT_SET_NO": 999, "REV_AT_EPOCH": 88826, "BSTAR": 0.00073747, "MEAN_MOTION_DOT": 3.418e-05, "MEAN_MOTION_DDOT": 0}, "tle": {"line1": "1 34477U 93036TW  25360.53004573  .00003418  00000+0  73747-3 0  9995", "line2": "2 34477  73.9786  43.2204 0076607 227.8040 250.8476 14.56957737888269"}}, "geometry": {"type": "Point", "coordinates": [-128.31041179043842, -30.33605447027701]}}, {"type": "Feature", "properties": {"norad_id": 34478, "name": "COSMOS 2251 DEB", "group": "cosmos-2251-debris", "lat": -66.18923188625303, "lon": -162.39044815340498, "alt_km": 533.3877168795543, "timestamp": "2025-12-27T03:58:44.541375+00:00", "meta": {"OBJECT_NAME": "COSMOS 2251 DEB", "OBJECT_ID": "1993-036TX", "EPOCH": "2025-12-26T17:35:26.251008", "MEAN_MOTION": 15.09266862, "ECCENTRICITY": 0.003345, "INCLINATION": 74.0401, "RA_OF_ASC_NODE": 338.0698, "ARG_OF_PERICENTER": 193.5394, "MEAN_ANOMALY": 227.3337, "EPHEMERIS_TYPE": 0, "CLASSIFICATION_TYPE": "U", "NORAD_CAT_ID": 34478, "ELEMENT_SET_NO": 999, "REV_AT_EPOCH": 89184, "BSTAR": 0.0034904, "MEAN_MOTION_DOT": 0.0005673, "MEAN_MOTION_DDOT": 0}, "tle": {"line1": "1 34478U 93036TX  25360.73294272  .00056730  00000+0  34904-2 0  9991", "line2": "2 34478  74.0401 338.0698 0033450 193.5394 227.3337 15.09266862891842"}}, "geometry": {"type": "Point", "coordinates": [-162.39044815340498, -66.18923188625303]}}, {"type": "Feature", "properties": {"norad_id": 34481, "name": "COSMOS 2251 DEB", "group": "cosmos-2251-debris", "lat": -40.665552020574175, "lon": -138.68290176344138, "alt_km": 743.2527666069518, "timestamp": "2025-12-27T03:58:44.541384+00:00", "meta": {"OBJECT_NAME": "COSMOS 2251 DEB", "OBJECT_ID": "1993-036UA", "EPOCH": "2025-12-26T01:57:47.583072", "MEAN_MOTION": 14.32596743, "ECCENTRICITY": 0.0070175, "INCLINATION": 73.9789, "RA_OF_ASC_NODE": 29.0117, "ARG_OF_PERICENTER": 200.8361, "MEAN_ANOMALY": 193.1339, "EPHEMERIS_TYPE": 0, "CLASSIFICATION_TYPE": "U", "NORAD_CAT_ID": 34481, "ELEMENT_SET_NO": 999, "REV_AT_EPOCH": 87640, "BSTAR": 0.00059012238, "MEAN_MOTION_DOT": 1.62e-05, "MEAN_MOTION_DDOT": 0}, "tle": {"line1": "1 34481U 93036UA  25360.08180073  .00001620  00000+0  59012-3 0  9992", "line2": "2 34481  73.9789  29.0117 0070175 200.8361 193.1339 14.32596743876403"}}, "geometry": {"type": "Point", "coordinates": [-138.68290176344138, -40.665552020574175]}}, {"type": "Feature", "properties": {"norad_id": 34482, "name": "COSMOS 2251 DEB", "group": "cosmos-2251-debris", "lat": 39.461669757770316, "lon": 2.023553488907501, "alt_km": 672.1998988586693, "timestamp": "2025-12-27T03:58:44.541394+00:00", "meta": {"OBJECT_NAME": "COSMOS 2251 DEB", "OBJECT_ID": "1993-036UB", "EPOCH": "2025-12-26T14:35:03.188256", "MEAN_MOTION": 14.69449825, "ECCENTRICITY": 0.0044286, "INCLINATION": 74.0358, "RA_OF_ASC_NODE": 196.7344, "ARG_OF_PERICENTER": 254.1792, "MEAN_ANOMALY": 173.5782, "EPHEMERIS_TYPE": 0, "CLASSIFICATION_TYPE": "U", "NORAD_CAT_ID": 34482, "ELEMENT_SET_NO": 999, "REV_AT_EPOCH": 88391, "BSTAR": 0.0018294, "MEAN_MOTION_DOT": 0.00010984, "MEAN_MOTION_DDOT": 0}, "tle": {"line1": "1 34482U 93036UB  25360.60767579  .00010984  00000+0  18294-2 0  9992", "line2": "2 34482  74.0358 196.7344 0044286 254.1792 173.5782 14.69449825883912"}}, "geometry": {"type": "Point", "coordinates": [2.023553488907501, 39.461669757770316]}}, {"type": "Feature", "properties": {"norad_id": 34544, "name": "COSMOS 2251 DEB", "group": "cosmos-2251-debris", "lat": -14.574927249584153, "lon": 4.977254528639435, "alt_km": 779.4224412902759, "timestamp": "2025-12-27T03:58:44.541404+00:00", "meta": {"OBJECT_NAME": "COSMOS 2251 DEB", "OBJECT_ID": "1993-036UE", "EPOCH": "2025-12-26T20:14:39.256224", "MEAN_MOTION": 13.54677608, "ECCENTRICITY": 0.0383507, "INCLINATION": 73.9136, "RA_OF_ASC_NODE": 181.1961, "ARG_OF_PERICENTER": 207.0709, "MEAN_ANOMALY": 217.7039, "EPHEMERIS_TYPE": 0, "CLASSIFICATION_TYPE": "U", "NORAD_CAT_ID": 34544, "ELEMENT_SET_NO": 999, "REV_AT_EPOCH": 83073, "BSTAR": 0.00061953, "MEAN_MOTION_DOT": 6.56e-06, "MEAN_MOTION_DDOT": 0}, "tle": {"line1": "1 34544U 93036UE  25360.84350991  .00000656  00000+0  61953-3 0  9999", "line2": "2 34544  73.9136 181.1961 0383507 207.0709 217.7039 13.54677608830736"}}, "geometry": {"type": "Point", "coordinates": [4.977254528639435, -14.574927249584153]}}, {"type": "Feature", "properties": {"norad_id": 34546, "name": "COSMOS 2251 DEB", "group": "cosmos-2251-debris", "lat": 4.973490486844988, "lon": 40.858934541923134, "alt_km": 750.1919040992361, "timestamp": "2025-12-27T03:58:44.541413+00:00", "meta": {"OBJECT_NAME": "COSMOS 2251 DEB", "OBJECT_ID": "1993-036UG", "EPOCH": "2025-12-26T15:49:40.531296", "MEAN_MOTION": 14.4546565, "ECCENTRICITY": 0.0022059, "INCLINATION": 74.0292, "RA_OF_ASC_NODE": 223.2308, "ARG_OF_PERICENTER": 295.4616, "MEAN_ANOMALY": 125.9339, "EPHEMERIS_TYPE": 0, "CLASSIFICATION_TYPE": "U", "NORAD_CAT_ID": 34546, "ELEMENT_SET_NO": 999, "REV_AT_EPOCH": 88227, "BSTAR": 0.00054394, "MEAN_MOTION_DOT": 1.895e-05, "MEAN_MOTION_DDOT": 0}, "tle": {"line1": "1 34546U 93036UG  25360.65949689  .00001895  00000+0  54394-3 0  9995", "line2": "2 34546  74.0292 223.2308 0022059 295.4616 125.9339 14.45465650882278"}}, "geometry": {"type": "Point", "coordinates": [40.858934541923134, 4.973490486844988]}}, {"type": "Feature", "properties": {"norad_id": 34547, "name": "COSMOS 2251 DEB", "group": "cosmos-2251-debris", "lat": -31.27842022082221, "lon": 62.61535864853331, "alt_km": 669.3517693145786, "timestamp": "2025-12-27T03:58:44.541422+00:00", "meta": {"OBJECT_NAME": "COSMOS 2251 DEB", "OBJECT_ID": "1993-036UH", "EPOCH": "2025-12-26T11:49:24.852000", "MEAN_MOTION": 14.72636699, "ECCENTRICITY": 0.001571, "INCLINATION": 74.0294, "RA_OF_ASC_NODE": 73.9449, "ARG_OF_PERICENTER": 151.3373, "MEAN_ANOMALY": 208.8666, "EPHEMERIS_TYPE": 0, "CLASSIFICATION_TYPE": "U", "NORAD_CAT_ID": 34547, "ELEMENT_SET_NO": 999, "REV_AT_EPOCH": 88724, "BSTAR": 0.00164, "MEAN_MOTION_DOT": 0.00010451, "MEAN_MOTION_DDOT": 0}, "tle": {"line1": "1 34547U 93036UH  25360.49264875  .00010451  00000+0  16400-2 0  9998", "line2": "2 34547  74.0294  73.9449 0015710 151.3373 208.8666 14.72636699887242"}}, "geometry": {"type": "Point", "coordinates": [62.61535864853331, -31.27842022082221]}}]}